ONEWEB-0534             
1 55797U 23029B   26198.15357297 -.00000157  00000+0 -41842-3 0  9990
2 55797  87.9174 268.4962 0002076 100.9945 259.1422 13.20771247165103
ONEWEB-0556             
1 55798U 23029C   26197.70578092 -.00000088  00000+0 -24838-3 0  9998
2 55798  87.9174 268.5842 0001389 114.7941 245.3337 13.20769484165042
ONEWEB-0562             
1 55799U 23029D   26198.14685142  .00000117  00000+0  25586-3 0  9995
2 55799  87.9172 268.4772 0001303  85.6145 274.5137 13.20772489165108
ONEWEB-0563             
1 55800U 23029E   26198.14179885  .00000103  00000+0  22152-3 0  9991
2 55800  87.9173 268.5083 0002172 104.2869 255.8505 13.20770486165098
ONEWEB-0564             
1 55801U 23029F   26198.13507255  .00000077  00000+0  15648-3 0  9999
2 55801  87.9175 268.4837 0001743  91.3838 268.7495 13.20772684165107
ONEWEB-0638             
1 55802U 23029G   26198.23124164  .00000253  00000+0  64895-3 0  9999
2 55802  87.8958 283.7630 0001476 105.0547 255.0746 13.14504433163340
ONEWEB-0639             
1 55803U 23029H   26198.20698315  .00000067  00000+0  13622-3 0  9996
2 55803  87.9187 298.9981 0002691 118.3792 241.7613 13.19726840162866
ONEWEB-0640             
1 55804U 23029J   26197.78405342 -.00000005  00000+0 -49042-4 0  9995
2 55804  87.8960 283.8432 0001637 118.1769 241.9527 13.14502179163308
ONEWEB-0641             
1 55805U 23029K   26197.82318147 -.00000783  00000+0 -19894-2 0  9990
2 55805  87.9193 299.0658 0002058 103.6810 256.4552 13.19718229162826
ONEWEB-0642             
1 55806U 23029L   26198.27334048  .00000029  00000+0  39651-4 0  9995
2 55806  87.9188 298.9859 0002690 110.4334 249.7088 13.19726558162879
ONEWEB-0643             
1 55807U 23029M   26198.21063435  .00000108  00000+0  25559-3 0  9998
2 55807  87.8955 283.7455 0002692 105.5176 254.6251 13.14502711163333
ONEWEB-0644             
1 55808U 23029N   26197.81370375 -.00000010  00000+0 -58234-4 0  9999
2 55808  87.9183 299.0786 0002307 105.5106 254.6282 13.19726137162812
ONEWEB-0645             
1 55809U 23029P   26198.21489881  .00000083  00000+0  17451-3 0  9991
2 55809  87.9186 298.9951 0002090 114.6993 245.4357 13.19726567162865
ONEWEB-0646             
1 55810U 23029Q   26198.23226279  .00000140  00000+0  31681-3 0  9990
2 55810  87.9187 298.9929 0002291 104.3305 255.8082 13.19727369162859
ONEWEB-0648             
1 55811U 23029R   26197.79832110 -.00000150  00000+0 -43986-3 0  9992
2 55811  87.8969 283.8041 0002424 121.1282 239.0086 13.14503273163281
ONEWEB-0649             
1 55812U 23029S   26198.25752983  .00000029  00000+0  39046-4 0  9990
2 55812  87.9186 298.9855 0002085 108.5318 251.6042 13.19726315162893
ONEWEB-0650             
1 55813U 23029T   26198.25279692  .00000039  00000+0  66002-4 0  9995
2 55813  87.9183 298.9889 0002534 110.4956 249.6449 13.19726016162860
ONEWEB-0652             
1 55814U 23029U   26198.15988522  .00000227  00000+0  57887-3 0  9993
2 55814  87.8968 283.7387 0001991  94.9032 265.2325 13.14502774163308
ONEWEB-0653             
1 55815U 23029V   26198.22014258  .00000246  00000+0  62936-3 0  9990
2 55815  87.8968 283.7251 0001945  99.6578 260.4771 13.14502346163346
ONEWEB-0654             
1 55816U 23029W   26198.21538386  .00000144  00000+0  35524-3 0  9993
2 55816  87.8967 283.7221 0001790  90.8630 269.2705 13.14502059163360
ONEWEB-0656             
1 55817U 23029X   26198.12833347  .00000066  00000+0  13115-3 0  9994
2 55817  87.9187 268.4643 0001838  87.2581 272.8763 13.20770342165109
ONEWEB-0657             
1 55818U 23029Y   26197.79318556 -.00000018  00000+0 -78420-4 0  9997
2 55818  87.9184 299.0788 0002164  79.0523 281.0853 13.19727104162818
ONEWEB-0658             
1 55819U 23029Z   26197.78843140  .00000015  00000+0  44719-5 0  9999
2 55819  87.9194 299.0579 0002372 106.7347 253.4046 13.19725927162820
ONEWEB-0660             
1 55820U 23029AA  26197.73647391 -.00000163  00000+0 -47363-3 0  9998
2 55820  87.8975 283.8132 0001975 109.1062 251.0282 13.14501889163284
ONEWEB-0661             
1 55821U 23029AB  26197.77137088  .00000203  00000+0  51243-3 0  9995
2 55821  87.8958 283.8461 0001829 107.3040 252.8290 13.14502992163278
ONEWEB-0662             
1 55822U 23029AC  26198.18684593 -.00000187  00000+0 -53831-3 0  9998
2 55822  87.8959 283.7686 0001959 107.9842 252.1502 13.14502309163370
ONEWEB-0663             
1 55823U 23029AD  26198.15979837  .00000121  00000+0  26442-3 0  9998
2 55823  87.9188 268.5290 0002216 109.5953 250.5420 13.20871419165108
ONEWEB-0664             
1 55824U 23029AE  26198.19063299  .00000069  00000+0  13804-3 0  9998
2 55824  87.9173 268.5006 0001615 103.4441 256.6873 13.20772058165103
ONEWEB-0665             
1 55825U 23029AF  26198.22490744  .00000296  00000+0  76403-3 0  9998
2 55825  87.8958 283.7365 0002062 109.1277 251.0076 13.14502643163351
ONEWEB-0666             
1 55826U 23029AG  26198.18387749  .00000052  00000+0  95596-4 0  9999
2 55826  87.9175 268.4921 0002460  82.9364 277.2049 13.20773199165118
